{
  "type": "FeatureCollection",
  "features": [
    {
      "type": "Feature",
      "properties": {
        "norad_id": 44334,
        "name": "EUTELSAT 7C",
        "group": "eutelsat",
        "lat": -0.028767475922853784,
        "lon": 39.296482121444676,
        "alt_km": 35799.247574456735,
        "timestamp": "2025-12-10T20:49:52.232356+00:00",
        "meta_object_name": "EUTELSAT 7C",
        "meta_object_id": "2019-034B",
        "meta_epoch": "2025-12-10T00:54:38.687328",
        "meta_mean_motion": 1.00271046,
        "meta_eccentricity": 0.00033552,
        "meta_inclination": 0.0729,
        "meta_ra_of_asc_node": 178.2937,
        "meta_arg_of_pericenter": 64.3773,
        "meta_mean_anomaly": 216.9906,
        "meta_ephemeris_type": 0,
        "meta_classification_type": "U",
        "meta_norad_cat_id": 44334,
        "meta_element_set_no": 999,
        "meta_rev_at_epoch": 493,
        "meta_bstar": 0,
        "meta_mean_motion_dot": 5.1e-07,
        "meta_mean_motion_ddot": 0,
        "tle_line1": "1 44334U 19034B   25344.03794777  .00000051  00000+0  00000+0 0  9991",
        "tle_line2": "2 44334   0.0729 178.2937 0003355  64.3773 216.9906  1.00271046  4931"
      },
      "geometry": {
        "type": "Point",
        "coordinates": [
          39.296482121444676,
          -0.028767475922853784
        ]
      }
    },
    {
      "type": "Feature",
      "properties": {
        "norad_id": 44624,
        "name": "EUTELSAT 5 WEST B",
        "group": "eutelsat",
        "lat": 0.05725000934017242,
        "lon": 27.33180545340045,
        "alt_km": 35795.0764825497,
        "timestamp": "2025-12-10T20:49:52.232368+00:00",
        "meta_object_name": "EUTELSAT 5 WEST B",
        "meta_object_id": "2019-067A",
        "meta_epoch": "2025-12-10T06:29:38.861952",
        "meta_mean_motion": 1.00271337,
        "meta_eccentricity": 0.00034665,
        "meta_inclination": 0.0636,
        "meta_ra_of_asc_node": 343.945,
        "meta_arg_of_pericenter": 276.083,
        "meta_mean_anomaly": 271.632,
        "meta_ephemeris_type": 0,
        "meta_classification_type": "U",
        "meta_norad_cat_id": 44624,
        "meta_element_set_no": 999,
        "meta_rev_at_epoch": 2254,
        "meta_bstar": 0,
        "meta_mean_motion_dot": -3.9e-07,
        "meta_mean_motion_ddot": 0,
        "tle_line1": "1 44624U 19067A   25344.27058868 -.00000039  00000+0  00000+0 0  9996",
        "tle_line2": "2 44624   0.0636 343.9450 0003466 276.0830 271.6320  1.00271337 22548"
      },
      "geometry": {
        "type": "Point",
        "coordinates": [
          27.33180545340045,
          0.05725000934017242
        ]
      }
    },
    {
      "type": "Feature",
      "properties": {
        "norad_id": 45027,
        "name": "EUTELSAT KONNECT",
        "group": "eutelsat",
        "lat": -0.042095667233313434,
        "lon": 39.49780664732201,
        "alt_km": 35789.67869040009,
        "timestamp": "2025-12-10T20:49:52.232380+00:00",
        "meta_object_name": "EUTELSAT KONNECT",
        "meta_object_id": "2020-005B",
        "meta_epoch": "2025-12-10T00:54:38.687328",
        "meta_mean_motion": 1.00268676,
        "meta_eccentricity": 0.00017287,
        "meta_inclination": 0.0718,
        "meta_ra_of_asc_node": 96.1497,
        "meta_arg_of_pericenter": 191.1313,
        "meta_mean_anomaly": 172.586,
        "meta_ephemeris_type": 0,
        "meta_classification_type": "U",
        "meta_norad_cat_id": 45027,
        "meta_element_set_no": 999,
        "meta_rev_at_epoch": 2244,
        "meta_bstar": 0,
        "meta_mean_motion_dot": 5.2e-07,
        "meta_mean_motion_ddot": 0,
        "tle_line1": "1 45027U 20005B   25344.03794777  .00000052  00000+0  00000+0 0  9992",
        "tle_line2": "2 45027   0.0718  96.1497 0001728 191.1313 172.5860  1.00268676 22446"
      },
      "geometry": {
        "type": "Point",
        "coordinates": [
          39.49780664732201,
          -0.042095667233313434
        ]
      }
    },
    {
      "type": "Feature",
      "properties": {
        "norad_id": 49056,
        "name": "EUTELSAT QUANTUM",
        "group": "eutelsat",
        "lat": 0.030312026962058484,
        "lon": 80.00753318994579,
        "alt_km": 35801.56039327049,
        "timestamp": "2025-12-10T20:49:52.232391+00:00",
        "meta_object_name": "EUTELSAT QUANTUM",
        "meta_object_id": "2021-069B",
        "meta_epoch": "2025-12-10T04:24:38.914272",
        "meta_mean_motion": 1.00271276,
        "meta_eccentricity": 0.0003726,
        "meta_inclination": 0.0161,
        "meta_ra_of_asc_node": 19.5087,
        "meta_arg_of_pericenter": 252.6452,
        "meta_mean_anomaly": 280.869,
        "meta_ephemeris_type": 0,
        "meta_classification_type": "U",
        "meta_norad_cat_id": 49056,
        "meta_element_set_no": 999,
        "meta_rev_at_epoch": 1603,
        "meta_bstar": 0,
        "meta_mean_motion_dot": 1.29e-06,
        "meta_mean_motion_ddot": 0,
        "tle_line1": "1 49056U 21069B   25344.18378373  .00000129  00000+0  00000+0 0  9990",
        "tle_line2": "2 49056   0.0161  19.5087 0003726 252.6452 280.8690  1.00271276 16037"
      },
      "geometry": {
        "type": "Point",
        "coordinates": [
          80.00753318994579,
          0.030312026962058484
        ]
      }
    },
    {
      "type": "Feature",
      "properties": {
        "norad_id": 53765,
        "name": "EUTELSAT KONNECT VHTS",
        "group": "eutelsat",
        "lat": -0.04164143226809206,
        "lon": 35.01782559853966,
        "alt_km": 35796.21363309527,
        "timestamp": "2025-12-10T20:49:52.232402+00:00",
        "meta_object_name": "EUTELSAT KONNECT VHTS",
        "meta_object_id": "2022-110A",
        "meta_epoch": "2025-12-10T06:29:38.861952",
        "meta_mean_motion": 1.00271134,
        "meta_eccentricity": 0.00025663,
        "meta_inclination": 0.0653,
        "meta_ra_of_asc_node": 101.0949,
        "meta_arg_of_pericenter": 136.9321,
        "meta_mean_anomaly": 301.3392,
        "meta_ephemeris_type": 0,
        "meta_classification_type": "U",
        "meta_norad_cat_id": 53765,
        "meta_element_set_no": 999,
        "meta_rev_at_epoch": 493,
        "meta_bstar": 0,
        "meta_mean_motion_dot": 2.1e-07,
        "meta_mean_motion_ddot": 0,
        "tle_line1": "1 53765U 22110A   25344.27058868  .00000021  00000+0  00000+0 0  9995",
        "tle_line2": "2 53765   0.0653 101.0949 0002566 136.9321 301.3392  1.00271134  4936"
      },
      "geometry": {
        "type": "Point",
        "coordinates": [
          35.01782559853966,
          -0.04164143226809206
        ]
      }
    },
    {
      "type": "Feature",
      "properties": {
        "norad_id": 54048,
        "name": "EUTELSAT HOTBIRD 13F",
        "group": "eutelsat",
        "lat": 0.060103945508841995,
        "lon": 45.33363164559856,
        "alt_km": 35781.03542569993,
        "timestamp": "2025-12-10T20:49:52.232414+00:00",
        "meta_object_name": "EUTELSAT HOTBIRD 13F",
        "meta_object_id": "2022-134A",
        "meta_epoch": "2025-12-10T06:13:38.752320",
        "meta_mean_motion": 1.0027045,
        "meta_eccentricity": 0.0001975,
        "meta_inclination": 0.0508,
        "meta_ra_of_asc_node": 290.7601,
        "meta_arg_of_pericenter": 64.7163,
        "meta_mean_anomaly": 190.1902,
        "meta_ephemeris_type": 0,
        "meta_classification_type": "U",
        "meta_norad_cat_id": 54048,
        "meta_element_set_no": 999,
        "meta_rev_at_epoch": 1148,
        "meta_bstar": 0,
        "meta_mean_motion_dot": 9e-07,
        "meta_mean_motion_ddot": 0,
        "tle_line1": "1 54048U 22134A   25344.25947630  .00000090  00000+0  00000+0 0  9994",
        "tle_line2": "2 54048   0.0508 290.7601 0001975  64.7163 190.1902  1.00270450 11485"
      },
      "geometry": {
        "type": "Point",
        "coordinates": [
          45.33363164559856,
          0.060103945508841995
        ]
      }
    },
    {
      "type": "Feature",
      "properties": {
        "norad_id": 54225,
        "name": "EUTELSAT HOTBIRD 13G",
        "group": "eutelsat",
        "lat": 0.027450416601966225,
        "lon": 45.27120956011408,
        "alt_km": 35792.84070676166,
        "timestamp": "2025-12-10T20:49:52.232426+00:00",
        "meta_object_name": "EUTELSAT HOTBIRD 13G",
        "meta_object_id": "2022-146A",
        "meta_epoch": "2025-12-10T06:13:38.752320",
        "meta_mean_motion": 1.00268356,
        "meta_eccentricity": 0.0001886,
        "meta_inclination": 0.0515,
        "meta_ra_of_asc_node": 237.9533,
        "meta_arg_of_pericenter": 304.8699,
        "meta_mean_anomaly": 2.8172,
        "meta_ephemeris_type": 0,
        "meta_classification_type": "U",
        "meta_norad_cat_id": 54225,
        "meta_element_set_no": 999,
        "meta_rev_at_epoch": 557,
        "meta_bstar": 0,
        "meta_mean_motion_dot": 9e-07,
        "meta_mean_motion_ddot": 0,
        "tle_line1": "1 54225U 22146A   25344.25947630  .00000090  00000+0  00000+0 0  9994",
        "tle_line2": "2 54225   0.0515 237.9533 0001886 304.8699   2.8172  1.00268356  5573"
      },
      "geometry": {
        "type": "Point",
        "coordinates": [
          45.27120956011408,
          0.027450416601966225
        ]
      }
    }
  ]
}